norad_id,name,regime,epoch,line1,line2,inclination,eccentricity,mean_motion,raan,arg_pericenter,mean_anomaly
36395,SDO,IGO,19196.34065145,1 36395U 10005A   19196.34065145 -.00000095  00000-0  00000+0 0   474,2 36395  29.7753 127.0863 0001772  17.1250 169.4824  1.00271143 34674,29.7753,0.0001772,1.00271143,127.0863,17.125,169.4824
36395,SDO,IGO,19197.40306878,1 36395U 10005A   19197.40306878 -.00000095  00000-0  00000+0 0   484,2 36395  29.7768 127.0685 0001726  17.3787 192.7584  1.00271192 34685,29.7768,0.0001726,1.00271192,127.0685,17.3787,192.7584
36395,SDO,IGO,19198.34007969,1 36395U 10005A   19198.34007969 -.00000093 +00000-0 +00000-0 0 0001,2 36395 029.7780 127.0527 0001704 018.5156 169.8797 01.0027120703472,29.778,0.0001704,1.00271207,127.0527,18.5156,169.8797
36395,SDO,IGO,19199.14811608,1 36395U 10005A   19199.14811608 -.00000090  00000-0  00000+0 0   495,2 36395  29.7791 127.0391 0001725  22.6927  97.4001  1.00271189 34703,29.7791,0.0001725,1.00271189,127.0391,22.6927,97.4001
36395,SDO,IGO,19199.34489326,1 36395U 10005A   19199.34489326 -.00000089 +00000-0 +00000-0 0 0001,2 36395 029.7794 127.0359 0001716 022.4460 168.6830 01.0027119703473,29.7794,0.0001716,1.00271197,127.0359,22.446,168.683
36395,SDO,IGO,19200.32783050,1 36395U 10005A   19200.32783050 -.00000085  00000-0  00000+0 0   503,2 36395  29.7807 127.0195 0001713  24.0797 161.8866  1.00271179 34716,29.7807,0.0001713,1.00271179,127.0195,24.0797,161.8866
36395,SDO,IGO,19201.36027307,1 36395U 10005A   19201.36027307 -.00000080  00000-0  00000+0 0   510,2 36395  29.7821 127.0023 0001724  26.0416 172.6331  1.00271139 34728,29.7821,0.0001724,1.00271139,127.0023,26.0416,172.6331
36395,SDO,IGO,19202.42723267,1 36395U 10005A   19202.42723267 -.00000075  00000-0  00000+0 0   521,2 36395  29.7835 126.9846 0001698  25.2520 198.5925  1.00271086 34739,29.7835,0.0001698,1.00271086,126.9846,25.252,198.5925
36395,SDO,IGO,19203.31477524,1 36395U 10005A   19203.31477524 -.00000071 +00000-0 +00000-0 0 0001,2 36395 029.7847 126.9698 0001701 025.9878 158.2567 01.0027103003477,29.7847,0.0001701,1.0027103,126.9698,25.9878,158.2567
36395,SDO,IGO,19204.32806038,1 36395U 10005A   19204.32806038 -.00000069  00000-0  00000+0 0   534,2 36395  29.7861 126.9529 0001734  27.8737 162.1626  1.00270944 34754,29.7861,0.0001734,1.00270944,126.9529,27.8737,162.1626
36395,SDO,IGO,19205.29691390,1 36395U 10005A   19205.29691390 -.00000069 +00000-0 +00000-0 0 0001,2 36395 029.7875 126.9366 0001789 029.8914 149.8969 01.0027082603479,29.7875,0.0001789,1.00270826,126.9366,29.8914,149.8969
36395,SDO,IGO,19206.34782317,1 36395U 10005A   19206.34782317 -.00000071  00000-0  00000+0 0   545,2 36395  29.7890 126.9188 0001831  30.8156 168.3464  1.00270694 34776,29.789,0.0001831,1.00270694,126.9188,30.8156,168.3464
36395,SDO,IGO,19207.30188368,1 36395U 10005A   19207.30188368 -.00000074 +00000-0 +00000-0 0 0001,2 36395 029.7903 126.9026 0001885 032.1551 151.4178 01.0027054703481,29.7903,0.0001885,1.00270547,126.9026,32.1551,151.4178
36395,SDO,IGO,19208.30049453,1 36395U 10005A   19208.30049453 -.00000079  00000-0  00000+0 0   559,2 36395  29.7918 126.8855 0001926  32.1469 151.9195  1.00270391 34799,29.7918,0.0001926,1.00270391,126.8855,32.1469,151.9195
36395,SDO,IGO,19209.28104970,1 36395U 10005A   19209.28104970 -.00000084 +00000-0 +00000-0 0 0001,2 36395 029.7933 126.8687 0001960 031.3217 146.7198 01.0027022903483,29.7933,0.000196,1.00270229,126.8687,31.3217,146.7198
36395,SDO,IGO,19210.38224751,1 36395U 10005A   19210.38224751 -.00000090  00000-0  00000+0 0   560,2 36395  29.7949 126.8497 0001979  28.8784 186.6894  1.00270032 34811,29.7949,0.0001979,1.00270032,126.8497,28.8784,186.6894
36395,SDO,IGO,19211.28686979,1 36395U 10005A   19211.28686979 -.00000093 +00000-0 +00000-0 0 0001,2 36395 029.7963 126.8340 0001995 026.0720 156.0592 01.0026989403485,29.7963,0.0001995,1.00269894,126.834,26.072,156.0592
36395,SDO,IGO,19212.26785402,1 36395U 10005A   19212.26785402 -.00000096  00000-0  00000+0 0   571,2 36395  29.7978 126.8168 0002039  25.0969 151.1629  1.00269733 34831,29.7978,0.0002039,1.00269733,126.8168,25.0969,151.1629
36395,SDO,IGO,19213.28452191,1 36395U 10005A   19213.28452191 -.00000096  00000-0  00000+0 0   581,2 36395  29.7993 126.7988 0002075  24.3169 158.9526  1.00269593 34847,29.7993,0.0002075,1.00269593,126.7988,24.3169,158.9526
36395,SDO,IGO,19214.26229815,1 36395U 10005A   19214.26229815 -.00000095 +00000-0 +00000-0 0 0001,2 36395 029.8008 126.7814 0002096 023.8117 152.4276 01.0026949903488,29.8008,0.0002096,1.00269499,126.7814,23.8117,152.4276
36395,SDO,IGO,19216.26299348,1 36395U 10005A   19216.26299348 -.00000092  00000-0  00000+0 0   592,2 36395  29.8040 126.7459 0002077  22.7550 155.7195  1.00269432 34874,29.804,0.0002077,1.00269432,126.7459,22.755,155.7195
36395,SDO,IGO,19217.24535499,1 36395U 10005A   19217.24535499 -.00000091 +00000-0 +00000-0 0 0001,2 36395 029.8055 126.7286 0002046 021.9613 151.1376 01.0026945903491,29.8055,0.0002046,1.00269459,126.7286,21.9613,151.1376
36395,SDO,IGO,19218.25034391,1 36395U 10005A   19218.25034391 -.00000092  00000-0  00000+0 0   600,2 36395  29.8070 126.7109 0002010  20.7334 155.1584  1.00269519 34898,29.807,0.000201,1.00269519,126.7109,20.7334,155.1584
36395,SDO,IGO,19219.25526022,1 36395U 10005A   19219.25526022 -.00000094  00000-0  00000+0 0   611,2 36395  29.8084 126.6932 0001972  19.4420 159.2167  1.00269597 34903,29.8084,0.0001972,1.00269597,126.6932,19.442,159.2167
36395,SDO,IGO,19220.26018470,1 36395U 10005A   19220.26018470 -.00000098  00000-0  00000+0 0   622,2 36395  29.8099 126.6756 0001939  18.8540 162.5744  1.00269680 34914,29.8099,0.0001939,1.0026968,126.6756,18.854,162.5744
36395,SDO,IGO,19221.26785612,1 36395U 10005A   19221.26785612 -.00000102  00000-0  00000+0 0   639,2 36395  29.8113 126.6580 0001900  18.4602 166.7299  1.00269760 34920,29.8113,0.00019,1.0026976,126.658,18.4602,166.7299
36395,SDO,IGO,19222.26577366,1 36395U 10005A   19222.26577366 -.00000105 +00000-0 +00000-0 0 0001,2 36395 029.8127 126.6407 0001862 019.0243 166.4064 01.0026982903496,29.8127,0.0001862,1.00269829,126.6407,19.0243,166.4064
36395,SDO,IGO,19224.24146550,1 36395U 10005A   19224.24146550 -.00000107  00000-0  00000+0 0   648,2 36395  29.8155 126.6070 0001783  20.4214 158.2194  1.00269938 34951,29.8155,0.0001783,1.00269938,126.607,20.4214,158.2194
36395,SDO,IGO,19225.25049351,1 36395U 10005A   19225.25049351 -.00000105  00000-0  00000+0 0   650,2 36395  29.8168 126.5899 0001760  23.2220 159.6699  1.00269970 34968,29.8168,0.000176,1.0026997,126.5899,23.222,159.6699
36395,SDO,IGO,19227.24563115,1 36395U 10005A   19227.24563115 -.00000096  00000-0  00000+0 0   682,2 36395  29.8193 126.5563 0001831  38.7643 144.3530  1.00269916 34980,29.8193,0.0001831,1.00269916,126.5563,38.7643,144.353
36395,SDO,IGO,19228.22861292,1 36395U 10005A   19228.22861292 -.00000090  00000-0  00000+0 0   693,2 36395  29.8186 126.5398 0002067  42.3218 135.6376  1.00269898 34990,29.8186,0.0002067,1.00269898,126.5398,42.3218,135.6376
36395,SDO,IGO,19229.23348601,1 36395U 10005A   19229.23348601 -.00000084  00000-0  00000+0 0   704,2 36395  29.8223 126.5228 0002334  49.3467 131.3609  1.00269950 35008,29.8223,0.0002334,1.0026995,126.5228,49.3467,131.3609
36395,SDO,IGO,19230.23868816,1 36395U 10005A   19230.23868816 -.00000079 +00000-0 +00000-0 0 0071,2 36395 029.8221 126.5060 0002305 050.0050 133.5735 01.0026983903501,29.8221,0.0002305,1.00269839,126.506,50.005,133.5735
36395,SDO,IGO,19231.24337451,1 36395U 10005A   19231.24337451 -.00000076 +00000-0 +00000-0 0 0072,2 36395 029.8234 126.4892 0002296 050.6672 135.5958 01.0026973903502,29.8234,0.0002296,1.00269739,126.4892,50.6672,135.5958
36395,SDO,IGO,19232.25885618,1 36395U 10005A   19232.25885618 -.00000074  00000-0  00000+0 0   736,2 36395  29.8269 126.4722 0001886  37.6077 155.2440  1.00269666 35039,29.8269,0.0001886,1.00269666,126.4722,37.6077,155.244
36395,SDO,IGO,19235.23313360,1 36395U 10005A   19235.23313360 -.00000079  00000-0  00000+0 0   743,2 36395  29.8311 126.4216 0001883  34.2315 152.3111  1.00269313 35065,29.8311,0.0001883,1.00269313,126.4216,34.2315,152.3111
36395,SDO,IGO,19237.20187253,1 36395U 10005A   19237.20187253 -.00000088  00000-0  00000+0 0   753,2 36395  29.8340 126.3877 0001831  27.6960 149.5450  1.00268976 35084,29.834,0.0001831,1.00268976,126.3877,27.696,149.545
36395,SDO,IGO,19238.20685591,1 36395U 10005A   19238.20685591 -.00000091  00000-0  00000+0 0   767,2 36395  29.8355 126.3702 0001801  20.1169 159.9151  1.00268805 35098,29.8355,0.0001801,1.00268805,126.3702,20.1169,159.9151
36395,SDO,IGO,19239.20813116,1 36395U 10005A   19239.20813116 -.00000094  00000-0  00000+0 0   778,2 36395  29.8371 126.3527 0001826  16.6968 164.7857  1.00268634 35104,29.8371,0.0001826,1.00268634,126.3527,16.6968,164.7857
36395,SDO,IGO,19240.21673812,1 36395U 10005A   19240.21673812 -.00000094  00000-0  00000+0 0   789,2 36395  29.8389 126.3348 0001894  19.3312 166.2458  1.00268475 35110,29.8389,0.0001894,1.00268475,126.3348,19.3312,166.2458
36395,SDO,IGO,19242.21230132,1 36395U 10005A   19242.21230132 -.00000090  00000-0  00000+0 0   792,2 36395  29.8421 126.2992 0001918  15.9332 170.0200  1.00268279 35134,29.8421,0.0001918,1.00268279,126.2992,15.9332,170.02
36395,SDO,IGO,19242.62480057,1 36395U 10005A   19242.62480057 -.00000089  00000-0  00000+0 0   800,2 36395  29.8436 126.2920 0002318 327.7402   7.1403  1.00268285 35130,29.8436,0.0002318,1.00268285,126.292,327.7402,7.1403
36395,SDO,IGO,19243.25639494,1 36395U 10005A   19243.25639494 -.00000089  00000-0  00000+0 0   812,2 36395  29.8422 126.2796 0001933   2.3886 200.5310  1.00276029 35142,29.8422,0.0001933,1.00276029,126.2796,2.3886,200.531
36395,SDO,IGO,19244.19910431,1 36395U 10005A   19244.19910431 -.00000087 +00000-0 +00000-0 0 0001,2 36395 029.8436 126.2628 0001919 358.8649 184.3884 01.0027596303518,29.8436,0.0001919,1.00275963,126.2628,358.8649,184.3884
